      2.10          N: GNSS NAV DATA                        RINEX VERSION / TYPE
fic2rin                                 11/18/2023 00:17:45 PGM / RUN BY / DATE
                                                            END OF HEADER
20 23 11 17  2  0  0.0  .401258468628D-03 -.193267624127D-11  .000000000000D+00
     .290000000000D+02 -.137812500000D+03  .458519099161D-08  .537464284871D+00
    -.705942511559D-05  .410505954642D-02  .628456473351D-05  .515365913582D+04
     .439200000000D+06  .502914190292D-07  .118511849409D+00  .137835741043D-06
     .951394674710D+00  .254406250000D+03 -.276942824722D+01 -.818569811004D-08
    -.139291516336D-09  .100000000000D+01  .228800000000D+04  .000000000000D+00
     .240000000000D+01  .000000000000D+00 -.838190317154D-08  .290000000000D+02
     .432000000000D+06  .400000000000D+01
26 23 11 17  2  0  0.0  .216125976294D-03 -.261479726760D-11  .000000000000D+00
     .330000000000D+02  .360625000000D+02  .503449542123D-08 -.260703577650D+01
     .164657831192D-05  .854154035915D-02  .103991478682D-04  .515378628540D+04
     .439200000000D+06 -.484287738800D-07 -.292465440600D+01 -.143423676491D-06
     .932930391267D+00  .166781250000D+03  .493069592682D+00 -.800104756146D-08
    -.343228582562D-09  .100000000000D+01  .228800000000D+04  .000000000000D+00
     .240000000000D+01  .000000000000D+00  .698491930962D-08  .330000000000D+02
     .432000000000D+06  .400000000000D+01
25 23 11 17  2  0  0.0  .477709807456D-03  .159161572810D-11  .000000000000D+00
     .310000000000D+02  .524062500000D+02  .463090718159D-08 -.181620060784D+01
     .266171991825D-05  .114420235623D-01  .968202948570D-05  .515365067101D+04
     .439200000000D+06  .188127160072D-06 -.286578341527D+01 -.633299350739D-07
     .952160591322D+00  .185437500000D+03  .105515824131D+01 -.773282210308D-08
    -.340728478423D-09  .100000000000D+01  .228800000000D+04  .000000000000D+00
     .240000000000D+01  .000000000000D+00  .558793544769D-08  .310000000000D+02
     .432000000000D+06  .400000000000D+01
18 23 11 17  2  0  0.0 -.481203198433D-03 -.108002495836D-10  .000000000000D+00
     .900000000000D+02 -.275625000000D+02  .440732643998D-08 -.181410721742D+00
    -.162422657013D-05  .382869888563D-02  .110641121864D-05  .515364624023D+04
     .439200000000D+06  .353902578354D-07 -.737544094198D+00  .745058059692D-07
     .974378574802D+00  .364125000000D+03 -.304445531884D+01 -.829713132311D-08
    -.202151277555D-09  .100000000000D+01  .228800000000D+04  .000000000000D+00
     .240000000000D+01  .000000000000D+00 -.838190317154D-08  .900000000000D+02
     .432000000000D+06  .400000000000D+01
22 23 11 17  2  0  0.0  .825561583042D-04 -.693489710102D-11  .000000000000D+00
     .470000000000D+02  .791250000000D+02  .419374611493D-08  .245793234535D+01
     .401586294174D-05  .150295832427D-01  .100899487734D-04  .515373167992D+04
     .439200000000D+06  .249594449997D-06 -.276011581836D+01 -.931322574615D-08
     .963206227006D+00  .183093750000D+03 -.116469851885D+01 -.744852454666D-08
    -.465733685392D-09  .100000000000D+01  .228800000000D+04  .000000000000D+00
     .240000000000D+01  .000000000000D+00 -.111758708954D-07  .470000000000D+02
     .432000000000D+06  .400000000000D+01
19 23 11 17  2  0  0.0  .399936456233D-03  .522959453519D-11  .000000000000D+00
     .450000000000D+02  .139593750000D+03  .418374569837D-08 -.231700744258D+01
     .735558569431D-05  .935170229059D-02  .411085784435D-05  .515367205048D+04
     .439200000000D+06 -.130385160446D-06 -.169766483387D+01  .126659870148D-06
     .970733579819D+00  .309218750000D+03  .244689249697D+01 -.796533178804D-08
     .138934358602D-09  .100000000000D+01  .228800000000D+04  .000000000000D+00
     .240000000000D+01  .000000000000D+00 -.153668224812D-07  .450000000000D+02
     .432000000000D+06  .400000000000D+01
28 23 11 17  2  0  0.0 -.478760339320D-04 -.864019966684D-11  .000000000000D+00
     .145000000000D+03 -.653125000000D+01  .475912680816D-08 -.235085114241D+01
    -.366941094398D-06  .790488091297D-03  .604055821896D-05  .515377528191D+04
     .439200000000D+06 -.260770320892D-07  .235157287597D+01  .242143869400D-07
     .961276399603D+00  .258093750000D+03  .156032463191D+01 -.800819071614D-08
    -.171435712414D-10  .100000000000D+01  .228800000000D+04  .000000000000D+00
     .240000000000D+01  .000000000000D+00 -.977888703346D-08  .145000000000D+03
     .432000000000D+06  .400000000000D+01
29 23 11 17  2  0  0.0 -.610201153904D-03  .113686837722D-12  .000000000000D+00
     .800000000000D+02  .133031250000D+03  .421624705218D-08  .179403308333D+01
     .693462789059D-05  .251156161539D-02  .526197254658D-05  .515369223785D+04
     .439200000000D+06  .540167093277D-07 -.172759062550D+01 -.484287738800D-07
     .973951066251D+00  .281656250000D+03  .257192940135D+01 -.802819154926D-08
     .896465912832D-10  .100000000000D+01  .228800000000D+04  .000000000000D+00
     .340000000000D+01  .000000000000D+00 -.977888703346D-08  .800000000000D+02
     .432000000000D+06  .400000000000D+01
16 23 11 17  2  0  0.0 -.420765019953D-03  .670752342558D-11  .000000000000D+00
     .102000000000D+03  .628750000000D+02  .423767651624D-08  .287639567756D+01
     .317394733429D-05  .136514885817D-01  .107698142529D-04  .515369280243D+04
     .439200000000D+06 -.353902578354D-07 -.276341454210D+01 -.156462192535D-06
     .963927147183D+00  .174250000000D+03  .800702902204D+00 -.749316926343D-08
    -.311798701953D-09  .100000000000D+01  .228800000000D+04  .000000000000D+00
     .340000000000D+01  .000000000000D+00 -.102445483208D-07  .102000000000D+03
     .432000000000D+06  .400000000000D+01
30 23 11 17  2  0  0.0 -.467457808554D-03  .409272615798D-11  .000000000000D+00
     .105000000000D+03 -.693750000000D+01  .534807991185D-08 -.106251504860D+01
    -.329688191414D-06  .658637424931D-02  .597722828388D-05  .515372446251D+04
     .439200000000D+06  .191852450371D-06  .239040200166D+01  .279396772385D-07
     .935306787579D+00  .246875000000D+03 -.255470075850D+01 -.828213069827D-08
    -.102504269714D-09  .100000000000D+01  .228800000000D+04  .000000000000D+00
     .240000000000D+01  .000000000000D+00  .372529029846D-08  .105000000000D+03
     .432000000000D+06  .400000000000D+01
15 23 11 17  2  0  0.0  .978675670922D-04  .375166564481D-11  .000000000000D+00
     .890000000000D+02 -.413750000000D+02  .507342561426D-08  .834484319759D+00
    -.207498669624D-05  .154434914002D-01  .949949026108D-05  .515356982613D+04
     .439200000000D+06 -.217929482460D-06  .119156110192D+01 -.372529029846D-08
     .933424471367D+00  .189000000000D+03  .127312121475D+01 -.835213361418D-08
     .407516974718D-09  .100000000000D+01  .228800000000D+04  .000000000000D+00
     .240000000000D+01  .000000000000D+00 -.107102096081D-07  .890000000000D+02
     .432000000000D+06  .400000000000D+01
17 23 11 17  2  0  0.0  .723163131624D-03 -.454747350886D-12  .000000000000D+00
     .610000000000D+02  .132875000000D+03  .417517391275D-08  .191186353037D+01
     .668875873089D-05  .138451146195D-01  .416859984398D-05  .515362263489D+04
     .439200000000D+06  .251457095146D-06 -.174212295672D+01 -.130385160446D-06
     .971623414369D+00  .299625000000D+03 -.137458429878D+01 -.783996942334D-08
     .567880797372D-10  .100000000000D+01  .228800000000D+04  .000000000000D+00
     .240000000000D+01  .000000000000D+00 -.111758708954D-07  .610000000000D+02
     .432000000000D+06  .400000000000D+01
13 23 11 17  2  0  0.0  .596074853092D-03  .409272615798D-11  .000000000000D+00
     .660000000000D+02 -.233437500000D+02  .429482175371D-08  .152468079383D+01
    -.124238431454D-05  .768477900419D-02  .831112265587D-05  .515366098404D+04
     .439200000000D+06 -.139698386192D-06  .147753269232D+01  .279396772385D-07
     .970067978425D+00  .225375000000D+03  .954188680006D+00 -.779639617977D-08
     .505378193887D-09  .100000000000D+01  .228800000000D+04  .000000000000D+00
     .240000000000D+01  .000000000000D+00 -.116415321827D-07  .660000000000D+02
     .432000000000D+06  .400000000000D+01
23 23 11 17  2  0  0.0  .100181903690D-03  .636646291241D-11  .000000000000D+00
     .130000000000D+03 -.119906250000D+03  .388159025524D-08 -.118837350876D+01
    -.623054802418D-05  .387188664172D-02  .749342143536D-05  .515369570732D+04
     .439200000000D+06  .186264514923D-07  .262097677283D+00 -.182539224625D-06
     .976705841936D+00  .247468750000D+03 -.303991049465D+01 -.765781897890D-08
    -.425017703693D-10  .100000000000D+01  .228800000000D+04  .000000000000D+00
     .240000000000D+01  .000000000000D+00 -.838190317154D-08  .386000000000D+03
     .432000000000D+06  .400000000000D+01
14 23 11 17  2  0  0.0  .245352741331D-03  .106865627458D-10  .000000000000D+00
     .270000000000D+02  .637187500000D+02  .466483716634D-08 -.169966921743D+01
     .316277146339D-05  .367953313980D-02  .987015664577D-05  .515367934799D+04
     .439200000000D+06  .707805156708D-07 -.282287171825D+01 -.502914190292D-07
     .947676238313D+00  .182968750000D+03 -.294765213798D+01 -.787211361942D-08
    -.312155859687D-09  .100000000000D+01  .228800000000D+04  .000000000000D+00
     .240000000000D+01  .000000000000D+00 -.791624188423D-08  .795000000000D+03
     .432000000000D+06  .400000000000D+01
11 23 11 17  2  0  0.0 -.463217031211D-03 -.161435309565D-10  .000000000000D+00
     .118000000000D+03 -.375000000000D+02  .464519349095D-08  .116208887488D+01
    -.191666185856D-05  .127253239043D-02  .482425093651D-06  .515362590218D+04
     .439200000000D+06 -.745058059692D-08 -.706985113591D+00  .316649675369D-07
     .966008682116D+00  .374468750000D+03 -.259587861964D+01 -.845749514576D-08
    -.184650548579D-09  .100000000000D+01  .228800000000D+04  .000000000000D+00
     .240000000000D+01  .000000000000D+00 -.838190317154D-08  .630000000000D+03
     .432000000000D+06  .400000000000D+01
